FENGYUN 1C DEB          
1 30768U 99025AUE 17345.82665544  .00000842  00000-0  37926-3 0  9993
2 30768  98.8060  33.6096 0038142  25.0041  28.2176 14.24588337560949
